[{"OBJECT_NAME":"STARLINK-3963","OBJECT_ID":"2022-052AX","EPOCH":"2026-03-09T20:18:38.801952","MEAN_MOTION":15.08839309,"ECCENTRICITY":0.00012876,"INCLINATION":53.217,"RA_OF_ASC_NODE":258.3896,"ARG_OF_PERICENTER":84.4499,"MEAN_ANOMALY":275.664,"EPHEMERIS_TYPE":0,"CLASSIFICATION_TYPE":"U","NORAD_CAT_ID":52643,"ELEMENT_SET_NO":999,"REV_AT_EPOCH":21115,"BSTAR":4.7794655e-5,"MEAN_MOTION_DOT":4.73e-6,"MEAN_MOTION_DDOT":0},{"OBJECT_NAME":"CZ-6A DEB","OBJECT_ID":"2024-140ZB","EPOCH":"2026-03-09T13:53:53.181600","MEAN_MOTION":15.04943741,"ECCENTRICITY":0.0099448,"INCLINATION":89.0521,"RA_OF_ASC_NODE":283.407,"ARG_OF_PERICENTER":138.6562,"MEAN_ANOMALY":222.2259,"EPHEMERIS_TYPE":0,"CLASSIFICATION_TYPE":"U","NORAD_CAT_ID":61434,"ELEMENT_SET_NO":999,"REV_AT_EPOCH":8386,"BSTAR":0.0022399,"MEAN_MOTION_DOT":0.00035579,"MEAN_MOTION_DDOT":0}]
